BEIDOU-2 G7 (C03)       
1 41586U 16037A   26172.55447016 -.00000355  00000+0  00000+0 0  9993
2 41586   1.7320  69.3648 0006521 358.2440 152.2640  1.00274439  6933
BEIDOU-3 M1 (C19)       
1 43001U 17069A   26171.89173509 -.00000077  00000+0  00000+0 0  9993
2 43001  56.6960  62.9620 0010382 325.8146  34.1572  1.86231151 58676
BEIDOU-3 M2 (C20)       
1 43002U 17069B   26170.75658747 -.00000066  00000+0  00000+0 0  9998
2 43002  56.6931  63.0362 0009109 351.9115   8.1147  1.86230559 58648
BEIDOU-3 M7 (C27)       
1 43107U 18003A   26171.03534061 -.00000089  00000+0  00000+0 0  9992
2 43107  54.3254 302.2159 0004851  94.5867 265.4639  1.86227890 57403
BEIDOU-3 M8 (C28)       
1 43108U 18003B   26171.51700953 -.00000093  00000+0  00000+0 0  9996
2 43108  54.3172 302.1809 0002615 260.4330  99.5328  1.86231030 57423
BEIDOU-3 M4 (C22)       
1 43207U 18018A   26171.96002647 -.00000078  00000+0  00000+0 0  9999
2 43207  56.6545  63.0234 0007674  20.2662 339.8025  1.86230959 56812
BEIDOU-3 M3 (C21)       
1 43208U 18018B   26172.02651015 -.00000078  00000+0  00000+0 0  9997
2 43208  56.6539  63.0252 0008507 342.4990  17.5099  1.86231037 56814
BEIDOU-3 M9 (C29)       
1 43245U 18029A   26171.17043730 -.00000089  00000+0  00000+0 0  9996
2 43245  54.1908 299.8436 0000998 153.7677 206.2347  1.86227999 55951
BEIDOU-3 M10 (C30)      
1 43246U 18029B   26170.03086451 -.00000080  00000+0  00000+0 0  9999
2 43246  54.1899 299.9108 0003781  40.0504 319.9737  1.86229038 55915
BEIDOU-2 IGSO-7 (C16)   
1 43539U 18057A   26171.91802064 -.00000023  00000+0  00000+0 0  9996
2 43539  55.1960 163.0240 0104976 238.0113 308.2121  1.00249965 29164
BEIDOU-3 M5 (C23)       
1 43581U 18062A   26171.32881155  .00000068  00000+0  00000+0 0  9990
2 43581  54.0851 182.1963 0005659 290.1184  69.8429  1.86228559 53693
BEIDOU-3 M6 (C24)       
1 43582U 18062B   26171.19229804  .00000066  00000+0  00000+0 0  9991
2 43582  54.0852 182.1905 0005006   8.6086 351.4220  1.86227785 53699
BEIDOU-3 M12 (C26)      
1 43602U 18067A   26172.20462948  .00000079  00000+0  00000+0 0  9994
2 43602  54.1808 180.9038 0007825  29.8811 330.1852  1.86227642 53191
